{"type": "FeatureCollection", "features": [ {"type": "Feature", "properties": {"norad_id": 34077, "name": "IRIDIUM 33 DEB", "group": "iridium-33-debris", "lat": -24.933911730990566, "lon": 50.29808398832863, "alt_km": 680.5623201555327, "timestamp": "2025-12-11T15:53:39.928332+00:00", "meta": {"OBJECT_NAME": "IRIDIUM 33 DEB", "OBJECT_ID": "1997-051CL", "EPOCH": "2025-12-11T06:28:42.934368", "MEAN_MOTION": 14.64809818, "ECCENTRICITY": 0.00103779, "INCLINATION": 86.386, "RA_OF_ASC_NODE": 52.1546, "ARG_OF_PERICENTER": 44.2381, "MEAN_ANOMALY": 23.4753, "EPHEMERIS_TYPE": 0, "CLASSIFICATION_TYPE": "U", "NORAD_CAT_ID": 34077, "ELEMENT_SET_NO": 999, "REV_AT_EPOCH": 88311, "BSTAR": 0.0029385818, "MEAN_MOTION_DOT": 0.00015729, "MEAN_MOTION_DDOT": 0}, "tle": {"line1": "1 34077U 97051CL  25345.26994137  .00015729  00000+0  29386-2 0  9996", "line2": "2 34077  86.3860  52.1546 0010377  44.2381  23.4753 14.64809818883111"}}, "geometry": {"type": "Point", "coordinates": [50.29808398832863, -24.933911730990566]}}, {"type": "Feature", "properties": {"norad_id": 34079, "name": "IRIDIUM 33 DEB", "group": "iridium-33-debris", "lat": -74.18580350236553, "lon": -157.92442209781956, "alt_km": 627.6338914980679, "timestamp": "2025-12-11T15:53:39.928342+00:00", "meta": {"OBJECT_NAME": "IRIDIUM 33 DEB", "OBJECT_ID": "1997-051CN", "EPOCH": "2025-12-11T02:02:18.975840", "MEAN_MOTION": 14.83452608, "ECCENTRICITY": 0.00058366, "INCLINATION": 86.3778, "RA_OF_ASC_NODE": 9.4145, "ARG_OF_PERICENTER": 13.5557, "MEAN_ANOMALY": 39.91, "EPHEMERIS_TYPE": 0, "CLASSIFICATION_TYPE": "U", "NORAD_CAT_ID": 34079, "ELEMENT_SET_NO": 999, "REV_AT_EPOCH": 88953, "BSTAR": 0.0024971347, "MEAN_MOTION_DOT": 0.00020578, "MEAN_MOTION_DDOT": 0}, "tle": {"line1": "1 34079U 97051CN  25345.08494185  .00020578  00000+0  24971-2 0  9999", "line2": "2 34079  86.3778   9.4145 0005836  13.5557  39.9100 14.83452608889531"}}, "geometry": {"type": "Point", "coordinates": [-157.92442209781956, -74.18580350236553]}}, {"type": "Feature", "properties": {"norad_id": 34088, "name": "IRIDIUM 33 DEB", "group": "iridium-33-debris", "lat": -44.403452136287015, "lon": 27.66851753149576, "alt_km": 603.4518586196145, "timestamp": "2025-12-11T15:53:39.928353+00:00", "meta": {"OBJECT_NAME": "IRIDIUM 33 DEB", "OBJECT_ID": "1997-051CX", "EPOCH": "2025-12-11T03:26:50.826912", "MEAN_MOTION": 14.91253391, "ECCENTRICITY": 0.00055228, "INCLINATION": 86.3845, "RA_OF_ASC_NODE": 31.4571, "ARG_OF_PERICENTER": 182.298, "MEAN_ANOMALY": 230.8134, "EPHEMERIS_TYPE": 0, "CLASSIFICATION_TYPE": "U", "NORAD_CAT_ID": 34088, "ELEMENT_SET_NO": 999, "REV_AT_EPOCH": 88718, "BSTAR": 0.0038535179, "MEAN_MOTION_DOT": 0.00038525, "MEAN_MOTION_DDOT": 0}, "tle": {"line1": "1 34088U 97051CX  25345.14364383  .00038525  00000+0  38535-2 0  9994", "line2": "2 34088  86.3845  31.4571 0005522 182.2980 230.8134 14.91253391887185"}}, "geometry": {"type": "Point", "coordinates": [27.66851753149576, -44.403452136287015]}}, {"type": "Feature", "properties": {"norad_id": 34091, "name": "IRIDIUM 33 DEB", "group": "iridium-33-debris", "lat": 2.1104198460072285, "lon": -112.80819358120526, "alt_km": 638.3565379815482, "timestamp": "2025-12-11T15:53:39.928364+00:00", "meta": {"OBJECT_NAME": "IRIDIUM 33 DEB", "OBJECT_ID": "1997-051DA", "EPOCH": "2025-12-11T05:21:58.568256", "MEAN_MOTION": 14.81622216, "ECCENTRICITY": 0.00334359, "INCLINATION": 86.3407, "RA_OF_ASC_NODE": 67.5278, "ARG_OF_PERICENTER": 298.8387, "MEAN_ANOMALY": 60.948, "EPHEMERIS_TYPE": 0, "CLASSIFICATION_TYPE": "U", "NORAD_CAT_ID": 34091, "ELEMENT_SET_NO": 999, "REV_AT_EPOCH": 87844, "BSTAR": 0.0076017863, "MEAN_MOTION_DOT": 0.00060805, "MEAN_MOTION_DDOT": 0}, "tle": {"line1": "1 34091U 97051DA  25345.22359454  .00060805  00000+0  76018-2 0  9994", "line2": "2 34091  86.3407  67.5278 0033435 298.8387  60.9480 14.81622216878446"}}, "geometry": {"type": "Point", "coordinates": [-112.80819358120526, 2.1104198460072285]}}, {"type": "Feature", "properties": {"norad_id": 34097, "name": "IRIDIUM 33 DEB", "group": "iridium-33-debris", "lat": -67.40066678753689, "lon": -168.9303498481524, "alt_km": 810.6697771013678, "timestamp": "2025-12-11T15:53:39.928375+00:00", "meta": {"OBJECT_NAME": "IRIDIUM 33 DEB", "OBJECT_ID": "1997-051DG", "EPOCH": "2025-12-11T01:20:58.856928", "MEAN_MOTION": 14.3475402, "ECCENTRICITY": 0.00827812, "INCLINATION": 86.2006, "RA_OF_ASC_NODE": 2.1506, "ARG_OF_PERICENTER": 7.6829, "MEAN_ANOMALY": 352.5612, "EPHEMERIS_TYPE": 0, "CLASSIFICATION_TYPE": "U", "NORAD_CAT_ID": 34097, "ELEMENT_SET_NO": 999, "REV_AT_EPOCH": 87095, "BSTAR": 0.0020785728, "MEAN_MOTION_DOT": 6.141e-05, "MEAN_MOTION_DDOT": 0}, "tle": {"line1": "1 34097U 97051DG  25345.05623677  .00006141  00000+0  20786-2 0  9996", "line2": "2 34097  86.2006   2.1506 0082781   7.6829 352.5612 14.34754020870952"}}, "geometry": {"type": "Point", "coordinates": [-168.9303498481524, -67.40066678753689]}}, {"type": "Feature", "properties": {"norad_id": 34145, "name": "IRIDIUM 33 DEB", "group": "iridium-33-debris", "lat": 50.770173466627526, "lon": 148.35244300598697, "alt_km": 712.6813574672215, "timestamp": "2025-12-11T15:53:39.928385+00:00", "meta": {"OBJECT_NAME": "IRIDIUM 33 DEB", "OBJECT_ID": "1997-051DY", "EPOCH": "2025-12-10T04:20:07.855008", "MEAN_MOTION": 14.42258512, "ECCENTRICITY": 0.0055658, "INCLINATION": 86.2123, "RA_OF_ASC_NODE": 333.6661, "ARG_OF_PERICENTER": 101.9259, "MEAN_ANOMALY": 258.8189, "EPHEMERIS_TYPE": 0, "CLASSIFICATION_TYPE": "U", "NORAD_CAT_ID": 34145, "ELEMENT_SET_NO": 999, "REV_AT_EPOCH": 87601, "BSTAR": 0.0015884, "MEAN_MOTION_DOT": 5.356e-05, "MEAN_MOTION_DDOT": 0}, "tle": {"line1": "1 34145U 97051DY  25344.18064647  .00005356  00000+0  15884-2 0  9999", "line2": "2 34145  86.2123 333.6661 0055658 101.9259 258.8189 14.42258512876012"}}, "geometry": {"type": "Point", "coordinates": [148.35244300598697, 50.770173466627526]}}, {"type": "Feature", "properties": {"norad_id": 34146, "name": "IRIDIUM 33 DEB", "group": "iridium-33-debris", "lat": 79.40084253198127, "lon": 149.9536123260972, "alt_km": 731.9823298342881, "timestamp": "2025-12-11T15:53:39.928396+00:00", "meta": {"OBJECT_NAME": "IRIDIUM 33 DEB", "OBJECT_ID": "1997-051DZ", "EPOCH": "2025-12-11T07:11:49.754688", "MEAN_MOTION": 14.4903398, "ECCENTRICITY": 0.00253678, "INCLINATION": 86.2839, "RA_OF_ASC_NODE": 350.4364, "ARG_OF_PERICENTER": 226.7139, "MEAN_ANOMALY": 144.2472, "EPHEMERIS_TYPE": 0, "CLASSIFICATION_TYPE": "U", "NORAD_CAT_ID": 34146, "ELEMENT_SET_NO": 999, "REV_AT_EPOCH": 88086, "BSTAR": 0.0016701168, "MEAN_MOTION_DOT": 6.382e-05, "MEAN_MOTION_DDOT": 0}, "tle": {"line1": "1 34146U 97051DZ  25345.29988142  .00006382  00000+0  16701-2 0  9997", "line2": "2 34146  86.2839 350.4364 0025367 226.7139 144.2472 14.49033980880869"}}, "geometry": {"type": "Point", "coordinates": [149.9536123260972, 79.40084253198127]}}, {"type": "Feature", "properties": {"norad_id": 34159, "name": "IRIDIUM 33 DEB", "group": "iridium-33-debris", "lat": -35.58704539431688, "lon": -128.68178913278646, "alt_km": 765.3999394701987, "timestamp": "2025-12-11T15:53:39.928406+00:00", "meta": {"OBJECT_NAME": "IRIDIUM 33 DEB", "OBJECT_ID": "1997-051EN", "EPOCH": "2025-12-11T04:52:32.970432", "MEAN_MOTION": 14.38486874, "ECCENTRICITY": 0.00259936, "INCLINATION": 86.3509, "RA_OF_ASC_NODE": 48.8965, "ARG_OF_PERICENTER": 293.3015, "MEAN_ANOMALY": 66.5448, "EPHEMERIS_TYPE": 0, "CLASSIFICATION_TYPE": "U", "NORAD_CAT_ID": 34159, "ELEMENT_SET_NO": 999, "REV_AT_EPOCH": 87937, "BSTAR": 0.00056853921, "MEAN_MOTION_DOT": 1.761e-05, "MEAN_MOTION_DDOT": 0}, "tle": {"line1": "1 34159U 97051EN  25345.20315938  .00001761  00000+0  56854-3 0  9999", "line2": "2 34159  86.3509  48.8965 0025993 293.3015  66.5448 14.38486874879376"}}, "geometry": {"type": "Point", "coordinates": [-128.68178913278646, -35.58704539431688]}}, {"type": "Feature", "properties": {"norad_id": 34350, "name": "IRIDIUM 33 DEB", "group": "iridium-33-debris", "lat": -38.2075150370014, "lon": -173.82732610290898, "alt_km": 744.3796469773542, "timestamp": "2025-12-11T15:53:39.928417+00:00", "meta": {"OBJECT_NAME": "IRIDIUM 33 DEB", "OBJECT_ID": "1997-051ES", "EPOCH": "2025-12-11T01:50:46.546368", "MEAN_MOTION": 14.45380646, "ECCENTRICITY": 0.0022689, "INCLINATION": 86.3276, "RA_OF_ASC_NODE": 3.5288, "ARG_OF_PERICENTER": 140.3676, "MEAN_ANOMALY": 273.777, "EPHEMERIS_TYPE": 0, "CLASSIFICATION_TYPE": "U", "NORAD_CAT_ID": 34350, "ELEMENT_SET_NO": 999, "REV_AT_EPOCH": 88269, "BSTAR": 0.00045529531, "MEAN_MOTION_DOT": 1.625e-05, "MEAN_MOTION_DDOT": 0}, "tle": {"line1": "1 34350U 97051ES  25345.07692762  .00001625  00000+0  45530-3 0  9998", "line2": "2 34350  86.3276   3.5288 0022689 140.3676 273.7770 14.45380646882696"}}, "geometry": {"type": "Point", "coordinates": [-173.82732610290898, -38.2075150370014]}}, {"type": "Feature", "properties": {"norad_id": 34366, "name": "IRIDIUM 33 DEB", "group": "iridium-33-debris", "lat": 27.47015054626096, "lon": -132.11001973485932, "alt_km": 695.8398972948798, "timestamp": "2025-12-11T15:53:39.928426+00:00", "meta": {"OBJECT_NAME": "IRIDIUM 33 DEB", "OBJECT_ID": "1997-051FJ", "EPOCH": "2025-12-11T05:33:55.951776", "MEAN_MOTION": 14.54036307, "ECCENTRICITY": 0.00222951, "INCLINATION": 86.3694, "RA_OF_ASC_NODE": 49.9688, "ARG_OF_PERICENTER": 144.5199, "MEAN_ANOMALY": 276.4662, "EPHEMERIS_TYPE": 0, "CLASSIFICATION_TYPE": "U", "NORAD_CAT_ID": 34366, "ELEMENT_SET_NO": 999, "REV_AT_EPOCH": 88160, "BSTAR": 0.0016787671, "MEAN_MOTION_DOT": 7.125e-05, "MEAN_MOTION_DDOT": 0}, "tle": {"line1": "1 34366U 97051FJ  25345.23189759  .00007125  00000+0  16788-2 0  9993", "line2": "2 34366  86.3694  49.9688 0022295 144.5199 276.4662 14.54036307881606"}}, "geometry": {"type": "Point", "coordinates": [-132.11001973485932, 27.47015054626096]}}]}